      2.10          N: GNSS NAV DATA                        RINEX VERSION / TYPE
fic2rin                                 04/15/2021 00:17:22 PGM / RUN BY / DATE
                                                            END OF HEADER
16 21  4 14  9 59 44.0-3.094892017543e-04-5.911715561524e-12 0.000000000000e+00
    4.700000000000e+01 5.271875000000e+01 4.319108479633e-09-1.572728648472e+00
    2.805143594742e-06 1.224650768563e-02 2.583488821983e-06 5.153680543900e+03
    2.951840000000e+05 1.750886440277e-07 1.583171202030e+00-1.154839992523e-07
    9.739158479614e-01 3.358437500000e+02 6.730559383843e-01-8.124266979758e-09
    1.596495071856e-10 1.000000000000e+00 2.153000000000e+03 0.000000000000e+00
    2.400000000000e+00 0.000000000000e+00-1.024454832077e-08 4.700000000000e+01
    2.880000000000e+05 4.000000000000e+00
 2 21  4 14 10  0  0.0-5.955318920314e-04-3.410605131648e-12 0.000000000000e+00
    4.600000000000e+01-6.475000000000e+01 3.982665894021e-09 1.870990885137e+00
   -3.373250365257e-06 2.025046269409e-02 1.163221895695e-05 5.153656408310e+03
    2.952000000000e+05 3.352761268616e-07-2.769235044018e+00-3.334134817123e-07
    9.629055593044e-01 1.508125000000e+02-1.525281182724e+00-7.533885245132e-09
    2.657253542419e-10 1.000000000000e+00 2.153000000000e+03 0.000000000000e+00
    2.400000000000e+00 0.000000000000e+00-1.769512891769e-08 4.600000000000e+01
    2.880000000000e+05 4.000000000000e+00
 1 21  4 14 10  0  0.0 7.165567949414e-04-9.890754881781e-12 0.000000000000e+00
    6.100000000000e+01-3.065625000000e+01 3.666581299257e-09 1.611687404792e+00
   -1.624226570129e-06 1.070553204045e-02 1.163594424725e-05 5.153690479279e+03
    2.952000000000e+05-2.179294824600e-07-2.686353553363e+00 1.117587089539e-08
    9.841632789681e-01 1.680937500000e+02 8.285050239312e-01-7.648890035543e-09
    2.603679882289e-10 1.000000000000e+00 2.153000000000e+03 0.000000000000e+00
    2.400000000000e+00 0.000000000000e+00 4.656612873077e-09 6.100000000000e+01
    2.880000000000e+05 4.000000000000e+00
 3 21  4 14 10  0  0.0-1.364410854876e-04-1.057287590811e-11 0.000000000000e+00
    3.500000000000e+01 3.171875000000e+01 4.723768192477e-09 5.307120957747e-01
    1.413747668266e-06 3.390390658751e-03 5.804002285004e-06 5.153610595703e+03
    2.952000000000e+05-5.587935447693e-09-1.648443063539e+00 5.401670932770e-08
    9.684554243071e-01 2.742812500000e+02 8.244566585463e-01-8.187126740977e-09
    4.139458139333e-10 1.000000000000e+00 2.153000000000e+03 0.000000000000e+00
    2.400000000000e+00 0.000000000000e+00 1.862645149231e-09 3.500000000000e+01
    2.880000000000e+05 4.000000000000e+00
14 21  4 14 10  0  0.0 9.613484144211e-05-2.728484105319e-12 0.000000000000e+00
    1.000000000000e+00 6.325000000000e+01 4.825915304457e-09 8.234440222630e-01
    3.034248948097e-06 5.837052594870e-04 2.367421984673e-06 5.153748435974e+03
    2.952000000000e+05 3.725290298462e-08 1.537907758865e+00-2.048909664154e-08
    9.573333760235e-01 3.316875000000e+02 2.485579032035e+00-8.485710606765e-09
    4.393040130612e-11 1.000000000000e+00 2.153000000000e+03 0.000000000000e+00
    2.400000000000e+00 0.000000000000e+00-7.916241884232e-09 1.000000000000e+00
    2.880000000000e+05 4.000000000000e+00
 8 21  4 14 10  0  0.0-1.746788620949e-05-1.364242052659e-12 0.000000000000e+00
    2.400000000000e+01-9.046875000000e+01 4.306607958936e-09-2.450325816488e+00
   -4.665926098824e-06 6.336833117530e-03 4.926696419716e-06 5.153584865570e+03
    2.952000000000e+05-6.332993507385e-08 2.523293512160e+00-5.587935447693e-08
    9.677097208342e-01 2.898750000000e+02 2.670857729659e-02-8.120338244682e-09
   -2.700112470522e-10 1.000000000000e+00 2.153000000000e+03 0.000000000000e+00
    2.400000000000e+00 0.000000000000e+00 5.122274160385e-09 2.400000000000e+01
    2.880000000000e+05 4.000000000000e+00
 6 21  4 14 10  0  0.0 7.166061550379e-06 2.842170943040e-12 0.000000000000e+00
    8.100000000000e+01-3.796875000000e+01 3.553005139783e-09 1.860469020940e+00
   -1.892447471619e-06 2.290368429385e-03 1.181662082672e-05 5.153749050140e+03
    2.952000000000e+05 2.607703208923e-08-2.694602266692e+00 4.470348358154e-08
    9.836377037043e-01 1.616250000000e+02-9.950631056067e-01-7.473525588053e-09
    3.153702792951e-10 1.000000000000e+00 2.153000000000e+03 0.000000000000e+00
    2.400000000000e+00 0.000000000000e+00 3.725290298462e-09 8.100000000000e+01
    2.880000000000e+05 4.000000000000e+00
 7 21  4 14 10  0  0.0 1.216270029545e-04 1.159605744760e-11 0.000000000000e+00
    8.900000000000e+01 7.087500000000e+01 4.651979487904e-09 1.028782098984e+00
    3.958120942116e-06 1.474816398695e-02 1.105479896069e-05 5.153597017288e+03
    2.952000000000e+05-1.080334186554e-07 4.541104355224e-01 1.583248376846e-07
    9.522652294634e-01 1.662812500000e+02-2.342017858719e+00-8.216770832915e-09
   -2.553677799502e-10 1.000000000000e+00 2.153000000000e+03 0.000000000000e+00
    3.400000000000e+00 0.000000000000e+00-1.117587089539e-08 8.900000000000e+01
    2.880000000000e+05 4.000000000000e+00
 4 21  4 14 10  0  0.0-1.917281188071e-04-1.932676241267e-12 0.000000000000e+00
    2.210000000000e+02-3.590625000000e+01 4.801628578532e-09-3.026196530032e+00
   -1.801177859306e-06 1.181444735266e-03 7.692724466324e-06 5.153758171082e+03
    2.952000000000e+05-4.842877388000e-08-5.676566962428e-01 0.000000000000e+00
    9.605156822022e-01 2.344375000000e+02-2.949991442002e+00-8.064621638148e-09
   -4.375182243902e-10 1.000000000000e+00 2.153000000000e+03 0.000000000000e+00
    2.400000000000e+00 0.000000000000e+00-4.190951585770e-09 4.770000000000e+02
    2.880000000000e+05 4.000000000000e+00
 9 21  4 14 10  0  0.0-3.387988545001e-04-2.728484105319e-12 0.000000000000e+00
    8.700000000000e+01-3.765625000000e+01 5.021637742797e-09-2.015385526771e+00
   -1.851469278336e-06 1.898359972984e-03 7.281079888344e-06 5.153801794052e+03
    2.952000000000e+05-7.450580596924e-09-6.181415383391e-01 5.029141902924e-08
    9.533145879162e-01 2.376875000000e+02 1.837016589149e+00-8.172840431609e-09
   -4.032310819074e-10 1.000000000000e+00 2.153000000000e+03 0.000000000000e+00
    2.400000000000e+00 0.000000000000e+00 1.396983861923e-09 8.700000000000e+01
    2.880000000000e+05 4.000000000000e+00
10 21  4 14 10  0  0.0-1.017129980028e-04-7.730704965070e-12 0.000000000000e+00
    1.870000000000e+02 2.753125000000e+01 4.677694844766e-09-4.425874321145e-01
    1.594424247742e-06 6.569772143848e-03 6.005167961121e-06 5.153666273117e+03
    2.952000000000e+05 4.842877388000e-08-1.651346663343e+00 6.332993507385e-08
    9.683424460697e-01 2.681250000000e+02-2.562952522014e+00-8.161411384115e-09
    4.821629411647e-10 1.000000000000e+00 2.153000000000e+03 0.000000000000e+00
    2.400000000000e+00 0.000000000000e+00 2.328306436539e-09 1.870000000000e+02
    2.880000000000e+05 4.000000000000e+00
31 21  4 14 10  0  0.0-1.115109771490e-04-2.160049916711e-12 0.000000000000e+00
    1.300000000000e+01 5.606250000000e+01 4.509830709694e-09 4.725310098990e-01
    3.080815076828e-06 9.937471244484e-03 1.070089638233e-05 5.153773483276e+03
    2.952000000000e+05 1.080334186554e-07 4.709828227136e-01 1.322478055954e-07
    9.565845521462e-01 1.677812500000e+02 2.580504398080e-01-8.028548706994e-09
   -1.650068731986e-10 1.000000000000e+00 2.153000000000e+03 0.000000000000e+00
    2.400000000000e+00 0.000000000000e+00-1.303851604462e-08 1.300000000000e+01
    2.880000000000e+05 4.000000000000e+00
22 21  4 14 10  0  0.0-6.381999701262e-04 8.753886504564e-12 0.000000000000e+00
    2.200000000000e+01 4.118750000000e+01 5.392010313158e-09 2.807635550799e+00
    1.914799213409e-06 7.071857922710e-03 5.869194865227e-06 5.153557281494e+03
    2.952000000000e+05 1.136213541031e-07-1.746446236599e+00 1.322478055954e-07
    9.339948236277e-01 2.488125000000e+02-9.961936911230e-01-8.423208003280e-09
    4.768055751518e-10 1.000000000000e+00 2.153000000000e+03 0.000000000000e+00
    2.400000000000e+00 0.000000000000e+00-1.816079020500e-08 2.200000000000e+01
    2.880000000000e+05 4.000000000000e+00
29 21  4 14 10  0  0.0-3.297673538327e-04-6.707523425575e-12 0.000000000000e+00
    5.000000000000e+01-9.581250000000e+01 3.995880730186e-09-2.321026922648e+00
   -5.001202225685e-06 1.714962418191e-03 5.260109901428e-06 5.153655488968e+03
    2.952000000000e+05 6.146728992462e-08 2.612991482772e+00 5.960464477539e-08
    9.843449148768e-01 2.909375000000e+02 2.113576111340e+00-7.962474526167e-09
   -3.743013054375e-10 1.000000000000e+00 2.153000000000e+03 0.000000000000e+00
    3.400000000000e+00 0.000000000000e+00-1.024454832077e-08 5.000000000000e+01
    2.880000000000e+05 4.000000000000e+00
32 21  4 14 10  0  0.0 2.208910882473e-05 0.000000000000e+00 0.000000000000e+00
    4.800000000000e+01-4.165625000000e+01 4.927705258703e-09-1.761320542482e+00
   -2.101063728333e-06 4.854138242081e-03 6.785616278648e-06 5.153655265808e+03
    2.952000000000e+05 6.891787052155e-08-6.082937385158e-01 7.450580596924e-09
    9.573153104481e-01 2.456250000000e+02-2.388695017638e+00-8.148910863418e-09
   -3.457286867018e-10 1.000000000000e+00 2.153000000000e+03 0.000000000000e+00
    2.400000000000e+00 0.000000000000e+00 4.656612873077e-10 4.800000000000e+01
    2.880000000000e+05 4.000000000000e+00
21 21  4 14 10  0  0.0 1.108855940402e-04 2.842170943040e-12 0.000000000000e+00
    2.800000000000e+01-2.800000000000e+01 4.106599627787e-09-2.309913404639e+00
   -1.139938831329e-06 2.416083146818e-02 1.135095953941e-05 5.153703893661e+03
    2.952000000000e+05 1.732259988785e-07-2.768879347190e+00 4.023313522339e-07
    9.570354893296e-01 1.504375000000e+02-1.154790486299e+00-7.498883787181e-09
    2.785830326729e-10 1.000000000000e+00 2.153000000000e+03 0.000000000000e+00
    2.400000000000e+00 0.000000000000e+00-1.024454832077e-08 2.800000000000e+01
    2.880000000000e+05 4.000000000000e+00
